SIRION PATHFINDER-2     
1 43759U 18099B   26178.35600257  .00005354  00000+0  29307-3 0  9997
2 43759  97.4251 227.1716 0007138 261.4560  98.5863 15.14635063414166
CORVUS BC4              
1 43767U 18099K   26178.37638737  .00004430  00000+0  25745-3 0  9998
2 43767  97.4064 221.0582 0007179 337.0395  23.0514 15.12573682413949
M2 PATHFINDER           
1 45727U 20037E   26178.48742919  .00003072  00000+0  22233-3 0  9991
2 45727  97.8135   9.8342 0012592 116.4905 243.7614 15.04714303327042
NETSAT-4                
1 46504U 20068U   26178.49406634  .00017603  00000+0  38533-3 0  9996
2 46504  97.8599 187.5647 0003156 281.5395  78.5497 15.44197974317365
NETSAT-3                
1 46505U 20068V   26178.50820639  .00017750  00000+0  40410-3 0  9994
2 46505  97.8649 185.7834 0002969 310.2459  49.8527 15.43027226317278
NETSAT-1                
1 46506U 20068W   26177.98050588  .00012112  00000+0  36068-3 0  9995
2 46506  97.8742 179.4288 0003797 359.9684   0.1557 15.34858405316808
NETSAT-2                
1 46507U 20068X   26178.51958697  .00021482  00000+0  43526-3 0  9991
2 46507  97.8611 187.5249 0001840 346.2649  13.8548 15.46432370317330
GREENCUBE (IO-117)      
1 53109U 22080E   26177.67811985 -.00000003  00000+0  00000+0 0  9990
2 53109  70.1443 294.9444 0008984 287.5437  72.4241  6.42583228 92674
SITRO-AIS 5 (KATYS)     
1 57176U 23091L   26178.47181569  .00012149  00000+0  42395-3 0  9998
2 57176  97.5063 242.4698 0012337  71.5018 288.7562 15.29684812165917
SITRO-AIS 6 (CHIRKIN)   
1 57192U 23091AC  26178.47460159  .00009790  00000+0  38118-3 0  9997
2 57192  97.5070 241.5368 0012767  74.6965 285.5683 15.26124341165854
SITRO-AIS 8 (ANOKHIN)   
1 57193U 23091AD  26178.47073903  .00014686  00000+0  47062-3 0  9993
2 57193  97.5059 244.0995 0011273  67.8713 292.3724 15.32405799166020
SITRO-AIS 7 (FARTUSHNIY)
1 57194U 23091AE  26178.47986589  .00009364  00000+0  36823-3 0  9997
2 57194  97.5066 241.3618 0012684  75.6615 284.6031 15.25807912165845
SITRO-AIS 10 (BURDAEV)  
1 57199U 23091AK  26178.52372205  .00018388  00000+0  47767-3 0  9997
2 57199  97.5085 249.3147 0006646  48.0830 312.0981 15.38989724166353
SITRO-AIS 9 (SHCHUKIN)  
1 57201U 23091AM  26178.48841178  .00019324  00000+0  51000-3 0  9992
2 57201  97.5082 249.0003 0006881  48.5655 311.6180 15.38489380166330
SITRO-AIS 12 (SMIRENNIY)
1 57204U 23091AQ  26178.47707009  .00020575  00000+0  53769-3 0  9992
2 57204  97.5095 249.4624 0006413  43.0799 317.0947 15.38783693166357
SITRO-AIS 11 (SHEFFER)  
1 57208U 23091AU  26178.42261537  .00021272  00000+0  54810-3 0  9995
2 57208  97.5094 249.6596 0006278  43.0500 317.1236 15.39211644166365
SITRO-AIS 25            
1 59066U 24039R   26178.49286794  .00002346  00000+0  18512-3 0  9991
2 59066  95.3907 242.1745 0142568 292.2921  66.3240 14.93560157126268
SITRO-AIS 26            
1 59067U 24039S   26178.49565148  .00002450  00000+0  19409-3 0  9997
2 59067  95.3908 242.0719 0142917 292.8818  65.7372 14.93354499126257
SITRO-AIS 27            
1 59068U 24039T   26178.52999506  .00003136  00000+0  24549-3 0  9994
2 59068  95.3914 242.3720 0141815 291.3378  67.2761 14.93778099126289
SITRO-AIS 28            
1 59071U 24039U   26178.50720356  .00002787  00000+0  21832-3 0  9994
2 59071  95.3910 242.4041 0141829 291.2370  67.3757 14.93808954126282
GRBBETA                 
1 60237U 24128C   26178.44057435  .00003398  00000+0  23825-3 0  9996
2 60237  61.9879 180.2904 0039353 136.7646 223.6547 15.06698062107819
OOV-CUBE (TUBSAT-30)    
1 60240U 24128F   26178.50198200  .00001706  00000+0  14007-3 0  9996
2 60240  61.9924 189.6042 0043348 136.0616 224.3935 15.02808571107665
ROBUSTA-3A (MEDITERRAN*)
1 60243U 24128J   26178.51965705  .00005269  00000+0  31451-3 0  9992
2 60243  61.9840 171.7016 0040027 130.3228 230.1376 15.11768449107983
LASARSAT                
1 62391U 24247Q   26178.50393800  .00029356  00000+0  57382-3 0  9994
2 62391  44.9723 204.2158 0007132  34.5010 325.6342 15.46954523 84911
CROCUBE                 
1 62394U 24247T   26178.35993929  .00037427  00000+0  68077-3 0  9999
2 62394  44.9690 202.1892 0006966  37.4943 322.6433 15.48916422 84927
FORESAIL-1 PRIME        
1 66778U 25276DS  26178.14301976  .00005433  00000+0  26440-3 0  9994
2 66778  97.4203 251.2317 0003890  83.4614 276.7063 15.18788261 31910
KNACKSAT-2              
1 67683U 98067XZ  26178.46927797  .00048531  00000+0  57112-3 0  9994
2 67683  51.6278 242.7251 0008624 261.3976  98.6040 15.60876135 21886
