OBJECT_NAME,OBJECT_ID,EPOCH,MEAN_MOTION,ECCENTRICITY,INCLINATION,RA_OF_ASC_NODE,ARG_OF_PERICENTER,MEAN_ANOMALY,EPHEMERIS_TYPE,CLASSIFICATION_TYPE,NORAD_CAT_ID,ELEMENT_SET_NO,REV_AT_EPOCH,BSTAR,MEAN_MOTION_DOT,MEAN_MOTION_DDOT
SIRION PATHFINDER-2,2018-099B,2026-06-27T08:32:38.622048,15.14635063,.0007138,97.4251,227.1716,261.4560,98.5863,0,U,43759,999,41416,.29307E-3,.5354E-4,0
CORVUS BC4,2018-099K,2026-06-27T09:01:59.868768,15.12573682,.0007179,97.4064,221.0582,337.0395,23.0514,0,U,43767,999,41394,.25745E-3,.443E-4,0
M2 PATHFINDER,2020-037E,2026-06-27T11:41:53.882016,15.04714303,.0012592,97.8135,9.8342,116.4905,243.7614,0,U,45727,999,32704,.22233E-3,.3072E-4,0
NETSAT-4,2020-068U,2026-06-27T11:51:27.331776,15.44197974,.0003156,97.8599,187.5647,281.5395,78.5497,0,U,46504,999,31736,.38533E-3,.17603E-3,0
NETSAT-3,2020-068V,2026-06-27T12:11:49.032096,15.43027226,.0002969,97.8649,185.7834,310.2459,49.8527,0,U,46505,999,31727,.4041E-3,.1775E-3,0
NETSAT-1,2020-068W,2026-06-26T23:31:55.708032,15.34858405,.0003797,97.8742,179.4288,359.9684,0.1557,0,U,46506,999,31680,.36068261E-3,.12112E-3,0
NETSAT-2,2020-068X,2026-06-27T12:28:12.314208,15.46432370,.000184,97.8611,187.5249,346.2649,13.8548,0,U,46507,999,31733,.43526E-3,.21482E-3,0
GREENCUBE (IO-117),2022-080E,2026-06-26T16:16:29.555040,6.42583228,.00089846,70.1443,294.9444,287.5437,72.4241,0,U,53109,999,9267,0,-.3E-7,0
SITRO-AIS 5 (KATYS),2023-091L,2026-06-27T11:19:24.875616,15.29684812,.0012337,97.5063,242.4698,71.5018,288.7562,0,U,57176,999,16591,.42395E-3,.12149E-3,0
SITRO-AIS 6 (CHIRKIN),2023-091AC,2026-06-27T11:23:25.577376,15.26124341,.0012767,97.5070,241.5368,74.6965,285.5683,0,U,57192,999,16585,.38118E-3,.979E-4,0
SITRO-AIS 8 (ANOKHIN),2023-091AD,2026-06-27T11:17:51.852192,15.32405799,.0011273,97.5059,244.0995,67.8713,292.3724,0,U,57193,999,16602,.47062E-3,.14686E-3,0
SITRO-AIS 7 (FARTUSHNIY),2023-091AE,2026-06-27T11:31:00.412896,15.25807912,.0012684,97.5066,241.3618,75.6615,284.6031,0,U,57194,999,16584,.36823E-3,.9364E-4,0
SITRO-AIS 10 (BURDAEV),2023-091AK,2026-06-27T12:34:09.585120,15.38989724,.0006646,97.5085,249.3147,48.0830,312.0981,0,U,57199,999,16635,.47767E-3,.18388E-3,0
SITRO-AIS 9 (SHCHUKIN),2023-091AM,2026-06-27T11:43:18.777792,15.38489380,.0006881,97.5082,249.0003,48.5655,311.6180,0,U,57201,999,16633,.51E-3,.19324E-3,0
SITRO-AIS 12 (SMIRENNIY),2023-091AQ,2026-06-27T11:26:58.855776,15.38783693,.0006413,97.5095,249.4624,43.0799,317.0947,0,U,57204,999,16635,.53769E-3,.20575E-3,0
SITRO-AIS 11 (SHEFFER),2023-091AU,2026-06-27T10:08:33.967968,15.39211644,.0006278,97.5094,249.6596,43.0500,317.1236,0,U,57208,999,16636,.5481E-3,.21272E-3,0
SITRO-AIS 25,2024-039R,2026-06-27T11:49:43.790016,14.93560157,.0142568,95.3907,242.1745,292.2921,66.3240,0,U,59066,999,12626,.18512E-3,.2346E-4,0
SITRO-AIS 26,2024-039S,2026-06-27T11:53:44.287872,14.93354499,.0142917,95.3908,242.0719,292.8818,65.7372,0,U,59067,999,12625,.19409E-3,.245E-4,0
SITRO-AIS 27,2024-039T,2026-06-27T12:43:11.573184,14.93778099,.0141815,95.3914,242.3720,291.3378,67.2761,0,U,59068,999,12628,.24549E-3,.3136E-4,0
SITRO-AIS 28,2024-039U,2026-06-27T12:10:22.387584,14.93808954,.0141829,95.3910,242.4041,291.2370,67.3757,0,U,59071,999,12628,.21832E-3,.2787E-4,0
GRBBETA,2024-128C,2026-06-27T10:34:25.623840,15.06698062,.0039353,61.9879,180.2904,136.7646,223.6547,0,U,60237,999,10781,.23825E-3,.3398E-4,0
OOV-CUBE (TUBSAT-30),2024-128F,2026-06-27T12:02:51.244800,15.02808571,.0043348,61.9924,189.6042,136.0616,224.3935,0,U,60240,999,10766,.14007E-3,.1706E-4,0
ROBUSTA-3A (MEDITERRANEE),2024-128J,2026-06-27T12:28:18.369120,15.11768449,.0040027,61.9840,171.7016,130.3228,230.1376,0,U,60243,999,10798,.31451E-3,.5269E-4,0
LASARSAT,2024-247Q,2026-06-27T12:05:40.243200,15.46954523,.0007132,44.9723,204.2158,34.5010,325.6342,0,U,62391,999,8491,.57382E-3,.29356E-3,0
CROCUBE,2024-247T,2026-06-27T08:38:18.754656,15.48916422,.0006966,44.9690,202.1892,37.4943,322.6433,0,U,62394,999,8492,.68077E-3,.37427E-3,0
FORESAIL-1 PRIME,2025-276DS,2026-06-27T03:25:56.907264,15.18788261,.00038901,97.4203,251.2317,83.4614,276.7063,0,U,66778,999,3191,.26439553E-3,.5433E-4,0
KNACKSAT-2,1998-067XZ,2026-06-27T11:15:45.616608,15.60876135,.0008624,51.6278,242.7251,261.3976,98.6040,0,U,67683,999,2188,.57112E-3,.48531E-3,0
